satname,norad_id,inclination_deg,eccentricity,mean_motion_rev_per_day,perigee_km,apogee_km,l1,l2
STARLINK-1153,45080,53.0542,0.0001431,15.0640298,546.2114086108613,548.1934407542058,1 45080U 20006AN  25319.66567872  .00000073  00000+0  23820-4 0  9990,2 45080  53.0542  58.4888 0001431 103.5776 256.5373 15.06402980319556
STARLINK-1151,45081,53.0552,0.0001332,15.06409908,546.2587391286215,548.1036438948413,1 45081U 20006AP  25319.58461056  .00008983  00000+0  62100-3 0  9990,2 45081  53.0552  58.9322 0001332 109.9056 250.2077 15.06409908319545
STARLINK-1190,45083,53.0364,0.0006376,16.03730183,259.86397048171693,268.3341499056751,1 45083U 20006AR  25319.49317170  .00652658  21367-3  10020-2 0  9999,2 45083  53.0364   0.2966 0006376   0.2571 359.8462 16.03730183320355
STARLINK-1185,45087,53.0558,0.0001355,15.06393022,546.2945569583271,548.17133221331,1 45087U 20006AV  25319.49429404  .00005371  00000+0  37927-3 0  9994,2 45087  53.0558  39.2610 0001355 120.5343 239.5779 15.06393022319810
STARLINK-1183,45088,53.0552,0.0001531,15.06396737,546.1612861860522,548.281830976689,1 45088U 20006AW  25319.51639685  .00007599  00000+0  52853-3 0  9991,2 45088  53.0552  39.1624 0001531  79.0383 281.0778 15.06396737319814
STARLINK-1142,45093,53.0314,0.0008069,15.68145809,358.76618955844333,369.64698363849584,1 45093U 20006BB  25319.91671295  .00295973  00000+0  25153-2 0  9991,2 45093  53.0314 324.2233 0008069  55.7336 289.6868 15.68145809  5997
STARLINK-1152,45096,53.0447,0.0004128,15.25454569,486.58586161566836,492.25571732665594,1 45096U 20006BE  25319.47023815  .00010118  00000+0  40755-3 0  9996,2 45096  53.0447  19.6364 0004128 243.2040 116.8535 15.25454569320086
STARLINK-1184,45098,53.057,0.0001613,15.06389839,546.1256363692473,548.3597638605052,1 45098U 20006BG  25319.53114252  .00001502  00000+0  11972-3 0  9997,2 45098  53.0570  39.0979 0001613 111.0249 249.0913 15.06389839319816
STARLINK-1193,45100,53.0568,0.000163,15.06384362,546.1306469433057,548.3883261979272,1 45100U 20006BJ  25319.52746719  .00004731  00000+0  33642-3 0  9994,2 45100  53.0568  39.1129 0001630  95.7599 264.3576 15.06384362319811
STARLINK-1143,45179,53.0523,0.0009497,15.42470638,432.34619155827204,445.29432017006184,1 45179U 20012B   25319.55772523  .00021852  00000+0  50425-3 0  9993,2 45179  53.0523 158.9211 0009497 103.6540 256.5523 15.42470638318203
STARLINK-1202,45183,53.0539,0.0002019,15.06399469,545.8149571748509,548.6114135797052,1 45183U 20012F   25319.65648105  .00010021  00000+0  69070-3 0  9999,2 45183  53.0539 198.5362 0002019  86.4519 273.6701 15.06399469317657
STARLINK-1216,45185,53.0529,0.00012,15.06370311,546.4714991955152,548.1336046879806,1 45185U 20012H   25319.38371846  .00002252  00000+0  17017-3 0  9997,2 45185  53.0529 199.7577 0001200  89.0402 271.0725 15.06370311317552
STARLINK-1225,45187,53.053,0.000139,15.06416309,546.1989571514277,548.1241901549029,1 45187U 20012K   25319.66753789  .00015580  00000+0  10620-2 0  9990,2 45187  53.0530 198.4841 0001390  89.6803 270.4345 15.06416309317646
STARLINK-1230,45189,53.0529,0.000145,15.06410323,546.1757486573933,548.1840905640811,1 45189U 20012M   25319.67122786  .00013201  00000+0  90319-3 0  9992,2 45189  53.0529 198.4725 0001450  89.0611 271.0544 15.06410323314875
STARLINK-1234,45190,53.0518,0.0004178,15.37985606,449.2131145821131,454.9204328554324,1 45190U 20012N   25318.84881035  .00016774  00000+0  45165-3 0  9998,2 45190  53.0518 156.0649 0004178 134.7518 225.3825 15.37985606318079
STARLINK-1269,45197,53.0501,0.0001203,15.06421676,546.3120134771689,547.9782363564236,1 45197U 20012V   25319.68227610  .00015403  00000+0  10501-2 0  9994,2 45197  53.0501 198.4199 0001203  83.2947 276.8179 15.06421676317629
STARLINK-1154,45198,53.0524,7.32e-05,15.06400088,546.7043527362666,547.7182237256638,1 45198U 20012W   25319.60672133  .00007531  00000+0  52392-3 0  9999,2 45198  53.0524 178.7582 0000732  43.0726 317.0321 15.06400088317864
STARLINK-1199,45201,53.056,0.0001673,15.06418581,545.9960091483663,548.3132117212172,1 45201U 20012Z   25319.35236620  .00006117  00000+0  42900-3 0  9996,2 45201  53.0560 179.8987 0001673  90.1146 270.0034 15.06418581317882
STARLINK-1209,45206,53.0535,0.000269,15.31905777,468.28447043957567,471.96883628508476,1 45206U 20012AE  25319.81243911  .00016031  00000+0  52385-3 0  9997,2 45206  53.0535 152.7871 0002690 136.7597 223.3615 15.31905777317352
STARLINK-1210,45207,53.0227,0.000935,15.60449441,380.03309197460294,392.6826974276937,1 45207U 20012AF  25319.83056314  .00064742  00000+0  77161-3 0  9990,2 45207  53.0227 111.8664 0009350 112.1029 248.0976 15.60449441318881
STARLINK-1231,45212,53.0503,0.0007955,15.13264514,520.75994006567,531.7448235721431,1 45212U 20012AL  25319.63516630  .00006894  00000+0  39941-3 0  9994,2 45212  53.0503 176.2858 0007955  94.2876 265.9025 15.13264514317913
STARLINK-1271,45217,53.054,0.0001568,15.06448395,545.9773668068765,548.149109601578,1 45217U 20012AR  25319.66936142  .00021684  00000+0  14682-2 0  9994,2 45217  53.0540 178.4766 0001568  85.4334 274.6834 15.06448395317936
STARLINK-1191,45222,53.0566,0.0001562,15.06393514,546.1496941156402,548.3131792152544,1 45222U 20012AW  25319.54589985  .00000991  00000+0  85404-4 0  9996,2 45222  53.0566 159.0319 0001562  88.9270 271.1898 15.06393514318193
STARLINK-1212,45223,53.053,0.0001517,15.06391812,546.1860739094855,548.287232275833,1 45223U 20012AX  25319.56441383  .00006345  00000+0  44456-3 0  9998,2 45223  53.0530 159.6034 0001517  82.5050 277.6112 15.06391812318190
STARLINK-1215,45225,53.0513,0.0001117,15.06375163,546.5141108751541,548.0612507488468,1 45225U 20012AZ  25319.85182608 -.00001020  00000+0 -49629-4 0  9999,2 45225  53.0513 157.6564 0001117 101.6730 258.4384 15.06375163318192
STARLINK-1221,45227,53.067,0.0003664,15.37398489,451.3023633174198,456.308810845233,1 45227U 20012BB  25319.73045644  .00021367  00000+0  58309-3 0  9994,2 45227  53.0670  87.7669 0003664  27.1530 332.9664 15.37398489319152
STARLINK-1222,45228,53.0531,0.0001391,15.06395747,546.2612750038425,548.1879105989592,1 45228U 20012BC  25319.55326845  .00000488  00000+0  51688-4 0  9995,2 45228  53.0531 158.9970 0001391  82.2618 277.8529 15.06395747318087
STARLINK-1226,45229,53.0531,0.0001336,15.06418978,546.22817491565,548.0786125088498,1 45229U 20012BD  25319.84810442 -.00019382  00000+0 -12852-2 0  9992,2 45229  53.0531 157.6722 0001336  80.3925 279.7215 15.06418978318139
STARLINK-1227,45230,53.0525,0.0001426,15.06380661,546.2832666655231,548.2583929785887,1 45230U 20012BE  25319.84445257 -.00001909  00000+0 -10934-3 0  9998,2 45230  53.0525 157.6893 0001426  95.0644 265.0508 15.06380661318257
STARLINK-1246,45235,53.0545,9.55e-05,15.06403884,546.5382844127898,547.8610237137154,1 45235U 20012BK  25319.66016463  .00006677  00000+0  46668-3 0  9994,2 45235  53.0545 198.5167 0000955  82.5833 277.5264 15.06403884317674
STARLINK-1270,45237,53.0517,0.0001557,15.06388505,546.1685064258281,548.3250709376243,1 45237U 20012BM  25319.26576495 -.00001407  00000+0 -75576-4 0  9997,2 45237  53.0517 160.2876 0001557  90.9173 269.1994 15.06388505318150
STARLINK-1279,45360,53.0519,0.000682,15.36670712,451.30166188372095,460.62337362593917,1 45360U 20019A   25319.81419267  .00021896  00000+0  61110-3 0  9995,2 45360  53.0519 282.1271 0006820  57.5157 302.6504 15.36670712313052
STARLINK-1301,45361,53.0509,0.0005596,15.39074861,445.02337188193087,452.66412873767786,1 45361U 20019B   25319.81738896  .00023326  00000+0  60170-3 0  9993,2 45361  53.0509 291.5659 0005596  49.2484 310.9004 15.39074861312935
STARLINK-1306,45362,53.0433,0.0006356,15.75038232,340.24946770472434,348.7953123213092,1 45362U 20019C   25319.91671295  .00135469  00000+0  88051-3 0  9994,2 45362  53.0433 277.4335 0006356  20.4033  22.1520 15.75038232  5916
STARLINK-1262,45366,53.0548,0.000135,15.06395074,546.2917313664575,548.1615795534317,1 45366U 20019G   25319.70806887  .00020847  00000+0  14145-2 0  9997,2 45366  53.0548 318.3002 0001350  93.6257 266.4886 15.06395074312555
STARLINK-1273,45367,53.0546,0.000159,15.06392582,546.1331590975778,548.335427168794,1 45367U 20019H   25319.73018519  .00002366  00000+0  17774-3 0  9996,2 45367  53.0546 318.2001 0001590  88.9577 271.1595 15.06392582312551
STARLINK-1276,45368,53.0545,0.0001264,15.06418528,546.2794159887326,548.0301297489141,1 45368U 20019J   25319.70070760  .00014083  00000+0  96196-3 0  9994,2 45368  53.0545 318.3356 0001264  95.4675 264.6458 15.06418528312559
STARLINK-1277,45369,53.0558,0.0001293,15.06388037,546.3527707435942,548.1436753622756,1 45369U 20019K   25319.29532740  .00003645  00000+0  26352-3 0  9999,2 45369  53.0558 320.7801 0001293 103.6133 256.5000 15.06388037312485
STARLINK-1281,45370,53.0571,0.0001386,15.06403413,546.2412457442606,548.1609494649174,1 45370U 20019L   25319.29153471 -.00010926  00000+0 -71568-3 0  9992,2 45370  53.0571 320.1737 0001386  91.6662 268.4486 15.06403413312497
STARLINK-1300,45374,53.0553,9.33e-05,15.06471044,546.3477121614133,547.6399415737069,1 45374U 20019Q   25319.44635120  .00029614  00000+0  19949-2 0  9995,2 45374  53.0553 319.4752 0000933  94.7665 265.3430 15.06471044312516
STARLINK-1302,45375,53.0539,0.000144,15.06386407,546.2559626472867,548.2504750303115,1 45375U 20019R   25319.32843451  .00014168  00000+0  96850-3 0  9996,2 45375  53.0539 320.0060 0001440  95.4739 264.6415 15.06386407312495
STARLINK-1304,45376,53.0543,0.0001223,15.06393623,546.3841300748218,548.0780751127149,1 45376U 20019S   25319.28050669  .00007127  00000+0  49692-3 0  9992,2 45376  53.0543 320.2201 0001223  75.9687 284.1438 15.06393623312483
STARLINK-1305,45377,53.0534,0.0004252,15.33179293,463.42357673618426,469.24411474340195,1 45377U 20019T   25319.69023293  .00016145  00000+0  50692-3 0  9993,2 45377  53.0534 313.3179 0004252  47.8221 312.3140 15.33179293312623
